ONEWEB-0144             
1 47290U 20100AJ  25088.98029791 -.00000156  00000+0 -46903-3 0  9991
2 47290  87.8811  79.0376 0001576  84.2243 275.9065 13.12441368206309
ONEWEB-0145             
1 47291U 20100AK  25088.95109311  .00000382  00000+0  10268-2 0  9999
2 47291  87.8812  79.0690 0001797  86.1655 273.9679 13.12441094206498
ONEWEB-0146             
1 47292U 20100AL  25088.94786611  .00000301  00000+0  80156-3 0  9998
2 47292  87.8812  79.0555 0002288  87.7478 272.3912 13.12443671206402
ONEWEB-0147             
1 47293U 20100AM  25088.91379184 -.00000363  00000+0 -10450-2 0  9998
2 47293  87.8810  79.0450 0001856  77.7263 282.4073 13.12441579206298
ONEWEB-0115             
1 48042U 21025A   25088.90798912 -.00000318  00000+0 -90463-3 0  9994
2 48042  87.8946  48.5125 0001952  81.8508 278.2843 13.13469922195272
ONEWEB-0152             
1 48043U 21025B   25088.92152552 -.00000134  00000+0 -40246-3 0  9991
2 48043  87.8948  48.5200 0002132  81.9224 278.2147 13.13471117195238
ONEWEB-0153             
1 48044U 21025C   25089.12806416 -.00000208  00000+0 -60470-3 0  9993
2 48044  87.8952  48.4738 0001846  81.9785 278.1553 13.13469656195260
ONEWEB-0154             
1 48045U 21025D   25088.89615073 -.00000145  00000+0 -43161-3 0  9992
2 48045  87.8947  48.5223 0001928  80.3920 279.7427 13.13470868195185
